{"type": "FeatureCollection", "features": [ {"type": "Feature", "properties": {"norad_id": 39634, "name": "SENTINEL-1A", "group": "resource", "lat": -67.6145423996068, "lon": 164.39957190835045, "alt_km": 703.8635828265988, "timestamp": "2025-12-25T19:00:39.005210+00:00", "meta": {"OBJECT_NAME": "SENTINEL-1A", "OBJECT_ID": "2014-016A", "EPOCH": "2025-12-25T06:21:10.738368", "MEAN_MOTION": 14.59200114, "ECCENTRICITY": 0.0001257, "INCLINATION": 98.1801, "RA_OF_ASC_NODE": 4.3208, "ARG_OF_PERICENTER": 85.9086, "MEAN_ANOMALY": 274.2257, "EPHEMERIS_TYPE": 0, "CLASSIFICATION_TYPE": "U", "NORAD_CAT_ID": 39634, "ELEMENT_SET_NO": 999, "REV_AT_EPOCH": 62465, "BSTAR": 3.9645552e-05, "MEAN_MOTION_DOT": 1.41e-06, "MEAN_MOTION_DDOT": 0}, "tle": {"line1": "1 39634U 14016A   25359.26470762  .00000141  00000+0  39646-4 0  9992", "line2": "2 39634  98.1801   4.3208 0001257  85.9086 274.2257 14.59200114624651"}}, "geometry": {"type": "Point", "coordinates": [164.39957190835045, -67.6145423996068]}}, {"type": "Feature", "properties": {"norad_id": 39731, "name": "KAZEOSAT 1", "group": "resource", "lat": 39.67845807685342, "lon": -101.60295324167525, "alt_km": 747.9546838498609, "timestamp": "2025-12-25T19:00:39.005220+00:00", "meta": {"OBJECT_NAME": "KAZEOSAT 1", "OBJECT_ID": "2014-024A", "EPOCH": "2025-12-25T06:42:30.482208", "MEAN_MOTION": 14.42069308, "ECCENTRICITY": 0.0001227, "INCLINATION": 98.3416, "RA_OF_ASC_NODE": 70.9049, "ARG_OF_PERICENTER": 97.9902, "MEAN_ANOMALY": 262.1427, "EPHEMERIS_TYPE": 0, "CLASSIFICATION_TYPE": "U", "NORAD_CAT_ID": 39731, "ELEMENT_SET_NO": 999, "REV_AT_EPOCH": 61349, "BSTAR": 6.9393266e-05, "MEAN_MOTION_DOT": 1.85e-06, "MEAN_MOTION_DDOT": 0}, "tle": {"line1": "1 39731U 14024A   25359.27951947  .00000185  00000+0  69393-4 0  9999", "line2": "2 39731  98.3416  70.9049 0001227  97.9902 262.1427 14.42069308613497"}}, "geometry": {"type": "Point", "coordinates": [-101.60295324167525, 39.67845807685342]}}, {"type": "Feature", "properties": {"norad_id": 39766, "name": "ALOS-2", "group": "resource", "lat": -21.46053722972176, "lon": 97.59018580131374, "alt_km": 636.8313938500914, "timestamp": "2025-12-25T19:00:39.005231+00:00", "meta": {"OBJECT_NAME": "ALOS-2", "OBJECT_ID": "2014-029A", "EPOCH": "2025-12-25T06:07:23.079072", "MEAN_MOTION": 14.79467994, "ECCENTRICITY": 0.00013803, "INCLINATION": 97.9221, "RA_OF_ASC_NODE": 93.923, "ARG_OF_PERICENTER": 101.0174, "MEAN_ANOMALY": 259.1193, "EPHEMERIS_TYPE": 0, "CLASSIFICATION_TYPE": "U", "NORAD_CAT_ID": 39766, "ELEMENT_SET_NO": 999, "REV_AT_EPOCH": 62586, "BSTAR": 0.00025501979, "MEAN_MOTION_DOT": 1.853e-05, "MEAN_MOTION_DDOT": 0}, "tle": {"line1": "1 39766U 14029A   25359.25512823  .00001853  00000+0  25502-3 0  9992", "line2": "2 39766  97.9221  93.9230 0001380 101.0174 259.1193 14.79467994625862"}}, "geometry": {"type": "Point", "coordinates": [97.59018580131374, -21.46053722972176]}}, {"type": "Feature", "properties": {"norad_id": 40010, "name": "KAZEOSAT 2", "group": "resource", "lat": 23.614025599044485, "lon": 26.756401423044775, "alt_km": 606.4747583466842, "timestamp": "2025-12-25T19:00:39.005241+00:00", "meta": {"OBJECT_NAME": "KAZEOSAT 2", "OBJECT_ID": "2014-033A", "EPOCH": "2025-12-25T06:59:30.579360", "MEAN_MOTION": 14.85187369, "ECCENTRICITY": 0.00087064, "INCLINATION": 97.5496, "RA_OF_ASC_NODE": 202.9578, "ARG_OF_PERICENTER": 163.2714, "MEAN_ANOMALY": 196.879, "EPHEMERIS_TYPE": 0, "CLASSIFICATION_TYPE": "U", "NORAD_CAT_ID": 40010, "ELEMENT_SET_NO": 999, "REV_AT_EPOCH": 62314, "BSTAR": 5.1658049e-05, "MEAN_MOTION_DOT": 3.93e-06, "MEAN_MOTION_DDOT": 0}, "tle": {"line1": "1 40010U 14033A   25359.29132615  .00000393  00000+0  51658-4 0  9992", "line2": "2 40010  97.5496 202.9578 0008706 163.2714 196.8790 14.85187369623143"}}, "geometry": {"type": "Point", "coordinates": [26.756401423044775, 23.614025599044485]}}, {"type": "Feature", "properties": {"norad_id": 40011, "name": "HODOYOSHI-4", "group": "resource", "lat": -7.17662981051544, "lon": -171.01181575958176, "alt_km": 625.8433163907057, "timestamp": "2025-12-25T19:00:39.005252+00:00", "meta": {"OBJECT_NAME": "HODOYOSHI-4", "OBJECT_ID": "2014-033B", "EPOCH": "2025-12-25T06:07:40.963872", "MEAN_MOTION": 14.87521603, "ECCENTRICITY": 0.00241435, "INCLINATION": 97.5411, "RA_OF_ASC_NODE": 187.5223, "ARG_OF_PERICENTER": 158.9866, "MEAN_ANOMALY": 201.2348, "EPHEMERIS_TYPE": 0, "CLASSIFICATION_TYPE": "U", "NORAD_CAT_ID": 40011, "ELEMENT_SET_NO": 999, "REV_AT_EPOCH": 62294, "BSTAR": 4.4997418e-05, "MEAN_MOTION_DOT": 3.58e-06, "MEAN_MOTION_DDOT": 0}, "tle": {"line1": "1 40011U 14033B   25359.25533523  .00000358  00000+0  44997-4 0  9991", "line2": "2 40011  97.5411 187.5223 0024143 158.9866 201.2348 14.87521603622940"}}, "geometry": {"type": "Point", "coordinates": [-171.01181575958176, -7.17662981051544]}}, {"type": "Feature", "properties": {"norad_id": 40013, "name": "DEIMOS-2", "group": "resource", "lat": 47.481492197698614, "lon": -133.216675307144, "alt_km": 583.7969027481922, "timestamp": "2025-12-25T19:00:39.005262+00:00", "meta": {"OBJECT_NAME": "DEIMOS-2", "OBJECT_ID": "2014-033D", "EPOCH": "2025-12-25T05:55:43.046400", "MEAN_MOTION": 14.93023569, "ECCENTRICITY": 0.00013264, "INCLINATION": 97.6049, "RA_OF_ASC_NODE": 234.6349, "ARG_OF_PERICENTER": 104.9216, "MEAN_ANOMALY": 255.2151, "EPHEMERIS_TYPE": 0, "CLASSIFICATION_TYPE": "U", "NORAD_CAT_ID": 40013, "ELEMENT_SET_NO": 999, "REV_AT_EPOCH": 61176, "BSTAR": 0.00018574228, "MEAN_MOTION_DOT": 1.877e-05, "MEAN_MOTION_DDOT": 0}, "tle": {"line1": "1 40013U 14033D   25359.24702600  .00001877  00000+0  18574-3 0  9994", "line2": "2 40013  97.6049 234.6349 0001326 104.9216 255.2151 14.93023569611765"}}, "geometry": {"type": "Point", "coordinates": [-133.216675307144, 47.481492197698614]}}, {"type": "Feature", "properties": {"norad_id": 40015, "name": "HODOYOSHI-3", "group": "resource", "lat": 27.054182319674958, "lon": -11.019024764880069, "alt_km": 598.7047198863747, "timestamp": "2025-12-25T19:00:39.005273+00:00", "meta": {"OBJECT_NAME": "HODOYOSHI-3", "OBJECT_ID": "2014-033F", "EPOCH": "2025-12-25T05:23:07.074816", "MEAN_MOTION": 14.84848105, "ECCENTRICITY": 0.00325328, "INCLINATION": 97.6207, "RA_OF_ASC_NODE": 164.5172, "ARG_OF_PERICENTER": 205.5388, "MEAN_ANOMALY": 154.4221, "EPHEMERIS_TYPE": 0, "CLASSIFICATION_TYPE": "U", "NORAD_CAT_ID": 40015, "ELEMENT_SET_NO": 999, "REV_AT_EPOCH": 62180, "BSTAR": 0.00020024414, "MEAN_MOTION_DOT": 1.665e-05, "MEAN_MOTION_DDOT": 0}, "tle": {"line1": "1 40015U 14033F   25359.22438744  .00001665  00000+0  20024-3 0  9997", "line2": "2 40015  97.6207 164.5172 0032532 205.5388 154.4221 14.84848105621804"}}, "geometry": {"type": "Point", "coordinates": [-11.019024764880069, 27.054182319674958]}}, {"type": "Feature", "properties": {"norad_id": 40053, "name": "SPOT 7", "group": "resource", "lat": -6.006871160131568, "lon": -119.2915880568902, "alt_km": 694.7783254946435, "timestamp": "2025-12-25T19:00:39.005283+00:00", "meta": {"OBJECT_NAME": "SPOT 7", "OBJECT_ID": "2014-034A", "EPOCH": "2025-12-25T06:39:16.558272", "MEAN_MOTION": 14.60749019, "ECCENTRICITY": 0.0001538, "INCLINATION": 98.0885, "RA_OF_ASC_NODE": 61.063, "ARG_OF_PERICENTER": 82.3434, "MEAN_ANOMALY": 277.7942, "EPHEMERIS_TYPE": 0, "CLASSIFICATION_TYPE": "U", "NORAD_CAT_ID": 40053, "ELEMENT_SET_NO": 999, "REV_AT_EPOCH": 61174, "BSTAR": 0.00011625534, "MEAN_MOTION_DOT": 5.21e-06, "MEAN_MOTION_DDOT": 0}, "tle": {"line1": "1 40053U 14034A   25359.27727498  .00000521  00000+0  11626-3 0  9990", "line2": "2 40053  98.0885  61.0630 0001538  82.3434 277.7942 14.60749019611747"}}, "geometry": {"type": "Point", "coordinates": [-119.2915880568902, -6.006871160131568]}}, {"type": "Feature", "properties": {"norad_id": 40072, "name": "SKYSAT-B", "group": "resource", "lat": -68.64486905364936, "lon": -33.71099270441795, "alt_km": 618.1743874930899, "timestamp": "2025-12-25T19:00:39.005293+00:00", "meta": {"OBJECT_NAME": "SKYSAT-B", "OBJECT_ID": "2014-037D", "EPOCH": "2025-12-25T03:10:51.973536", "MEAN_MOTION": 14.87370343, "ECCENTRICITY": 0.00068415, "INCLINATION": 98.3628, "RA_OF_ASC_NODE": 303.4941, "ARG_OF_PERICENTER": 115.6801, "MEAN_ANOMALY": 244.5121, "EPHEMERIS_TYPE": 0, "CLASSIFICATION_TYPE": "U", "NORAD_CAT_ID": 40072, "ELEMENT_SET_NO": 999, "REV_AT_EPOCH": 62008, "BSTAR": 0.00020295064, "MEAN_MOTION_DOT": 1.774e-05, "MEAN_MOTION_DDOT": 0}, "tle": {"line1": "1 40072U 14037D   25359.13254599  .00001774  00000+0  20295-3 0  9999", "line2": "2 40072  98.3628 303.4941 0006841 115.6801 244.5121 14.87370343620081"}}, "geometry": {"type": "Point", "coordinates": [-33.71099270441795, -68.64486905364936]}}, {"type": "Feature", "properties": {"norad_id": 40115, "name": "WORLDVIEW-3 (WV-3)", "group": "resource", "lat": 68.39703985406456, "lon": 51.45053518260702, "alt_km": 607.1868624273766, "timestamp": "2025-12-25T19:00:39.005304+00:00", "meta": {"OBJECT_NAME": "WORLDVIEW-3 (WV-3)", "OBJECT_ID": "2014-048A", "EPOCH": "2025-12-25T05:45:26.855424", "MEAN_MOTION": 14.84675628, "ECCENTRICITY": 0.00020436, "INCLINATION": 97.8764, "RA_OF_ASC_NODE": 71.3675, "ARG_OF_PERICENTER": 129.1634, "MEAN_ANOMALY": 230.9763, "EPHEMERIS_TYPE": 0, "CLASSIFICATION_TYPE": "U", "NORAD_CAT_ID": 40115, "ELEMENT_SET_NO": 999, "REV_AT_EPOCH": 61609, "BSTAR": 0.00013534915, "MEAN_MOTION_DOT": 1.092e-05, "MEAN_MOTION_DDOT": 0}, "tle": {"line1": "1 40115U 14048A   25359.23989416  .00001092  00000+0  13535-3 0  9995", "line2": "2 40115  97.8764  71.3675 0002043 129.1634 230.9763 14.84675628616091"}}, "geometry": {"type": "Point", "coordinates": [51.45053518260702, 68.39703985406456]}}]}